{"type": "FeatureCollection", "features": [ {"type": "Feature", "properties": {"norad_id": 40118, "name": "GAOFEN-2", "group": "resource", "lat": -34.17644693467998, "lon": -126.08439933841181, "alt_km": 638.1541113112226, "timestamp": "2025-12-26T05:31:12.156981+00:00", "meta": {"OBJECT_NAME": "GAOFEN-2", "OBJECT_ID": "2014-049A", "EPOCH": "2025-12-25T23:41:21.724800", "MEAN_MOTION": 14.80629096, "ECCENTRICITY": 0.00087032, "INCLINATION": 98.0362, "RA_OF_ASC_NODE": 59.1771, "ARG_OF_PERICENTER": 76.4709, "MEAN_ANOMALY": 283.7472, "EPHEMERIS_TYPE": 0, "CLASSIFICATION_TYPE": "U", "NORAD_CAT_ID": 40118, "ELEMENT_SET_NO": 999, "REV_AT_EPOCH": 61360, "BSTAR": 7.9942849e-05, "MEAN_MOTION_DOT": 5.6e-06, "MEAN_MOTION_DDOT": 0}, "tle": {"line1": "1 40118U 14049A   25359.98705700  .00000560  00000+0  79943-4 0  9998", "line2": "2 40118  98.0362  59.1771 0008703  76.4709 283.7472 14.80629096613609"}}, "geometry": {"type": "Point", "coordinates": [-126.08439933841181, -34.17644693467998]}}, {"type": "Feature", "properties": {"norad_id": 40143, "name": "YAOGAN-21", "group": "resource", "lat": 70.46622361318525, "lon": -116.25137951345107, "alt_km": 489.6920599607047, "timestamp": "2025-12-26T05:31:12.156992+00:00", "meta": {"OBJECT_NAME": "YAOGAN-21", "OBJECT_ID": "2014-053A", "EPOCH": "2025-12-25T22:44:35.816928", "MEAN_MOTION": 15.23803321, "ECCENTRICITY": 0.00084378, "INCLINATION": 97.1735, "RA_OF_ASC_NODE": 42.6851, "ARG_OF_PERICENTER": 357.8228, "MEAN_ANOMALY": 2.2971, "EPHEMERIS_TYPE": 0, "CLASSIFICATION_TYPE": "U", "NORAD_CAT_ID": 40143, "ELEMENT_SET_NO": 999, "REV_AT_EPOCH": 62855, "BSTAR": 0.00016291592, "MEAN_MOTION_DOT": 3.858e-05, "MEAN_MOTION_DDOT": 0}, "tle": {"line1": "1 40143U 14053A   25359.94763677  .00003858  00000+0  16292-3 0  9994", "line2": "2 40143  97.1735  42.6851 0008437 357.8228   2.2971 15.23803321628554"}}, "geometry": {"type": "Point", "coordinates": [-116.25137951345107, 70.46622361318525]}}, {"type": "Feature", "properties": {"norad_id": 40275, "name": "YAOGAN-22", "group": "resource", "lat": -68.93647827275441, "lon": 173.37234448654223, "alt_km": 1207.613817499002, "timestamp": "2025-12-26T05:31:12.157002+00:00", "meta": {"OBJECT_NAME": "YAOGAN-22", "OBJECT_ID": "2014-063A", "EPOCH": "2025-12-25T22:35:00.656448", "MEAN_MOTION": 13.15523293, "ECCENTRICITY": 0.00061005, "INCLINATION": 100.743, "RA_OF_ASC_NODE": 143.5472, "ARG_OF_PERICENTER": 216.6674, "MEAN_ANOMALY": 143.4021, "EPHEMERIS_TYPE": 0, "CLASSIFICATION_TYPE": "U", "NORAD_CAT_ID": 40275, "ELEMENT_SET_NO": 999, "REV_AT_EPOCH": 53703, "BSTAR": 5.1501256e-05, "MEAN_MOTION_DOT": -2.7e-07, "MEAN_MOTION_DDOT": 0}, "tle": {"line1": "1 40275U 14063A   25359.94097982 -.00000027  00000+0  51501-4 0  9999", "line2": "2 40275 100.7430 143.5472 0006100 216.6674 143.4021 13.15523293537037"}}, "geometry": {"type": "Point", "coordinates": [173.37234448654223, -68.93647827275441]}}, {"type": "Feature", "properties": {"norad_id": 40298, "name": "ASNARO", "group": "resource", "lat": -42.97027670980109, "lon": 82.76520652679407, "alt_km": 515.7328026680862, "timestamp": "2025-12-26T05:31:12.157013+00:00", "meta": {"OBJECT_NAME": "ASNARO", "OBJECT_ID": "2014-070A", "EPOCH": "2025-12-25T21:48:35.097984", "MEAN_MOTION": 15.19755365, "ECCENTRICITY": 0.00057056, "INCLINATION": 97.363, "RA_OF_ASC_NODE": 75.5332, "ARG_OF_PERICENTER": 86.5048, "MEAN_ANOMALY": 273.684, "EPHEMERIS_TYPE": 0, "CLASSIFICATION_TYPE": "U", "NORAD_CAT_ID": 40298, "ELEMENT_SET_NO": 999, "REV_AT_EPOCH": 61769, "BSTAR": 0.00025384457, "MEAN_MOTION_DOT": 5.364e-05, "MEAN_MOTION_DDOT": 0}, "tle": {"line1": "1 40298U 14070A   25359.90873956  .00005364  00000+0  25384-3 0  9998", "line2": "2 40298  97.3630  75.5332 0005705  86.5048 273.6840 15.19755365617692"}}, "geometry": {"type": "Point", "coordinates": [82.76520652679407, -42.97027670980109]}}, {"type": "Feature", "properties": {"norad_id": 40310, "name": "YAOGAN-24", "group": "resource", "lat": -16.712983174229034, "lon": 133.85392943115573, "alt_km": 650.6250547284753, "timestamp": "2025-12-26T05:31:12.157022+00:00", "meta": {"OBJECT_NAME": "YAOGAN-24", "OBJECT_ID": "2014-072A", "EPOCH": "2025-12-25T23:05:21.606432", "MEAN_MOTION": 14.76204046, "ECCENTRICITY": 0.00152152, "INCLINATION": 98.1233, "RA_OF_ASC_NODE": 131.1266, "ARG_OF_PERICENTER": 98.4511, "MEAN_ANOMALY": 261.8424, "EPHEMERIS_TYPE": 0, "CLASSIFICATION_TYPE": "U", "NORAD_CAT_ID": 40310, "ELEMENT_SET_NO": 999, "REV_AT_EPOCH": 59816, "BSTAR": 0.00016615136, "MEAN_MOTION_DOT": 1.099e-05, "MEAN_MOTION_DDOT": 0}, "tle": {"line1": "1 40310U 14072A   25359.96205563  .00001099  00000+0  16615-3 0  9992", "line2": "2 40310  98.1233 131.1266 0015215  98.4511 261.8424 14.76204046598168"}}, "geometry": {"type": "Point", "coordinates": [133.85392943115573, -16.712983174229034]}}, {"type": "Feature", "properties": {"norad_id": 40336, "name": "CBERS 4", "group": "resource", "lat": -81.49729184882878, "lon": 136.26566949125052, "alt_km": 782.0140303815524, "timestamp": "2025-12-26T05:31:12.157057+00:00", "meta": {"OBJECT_NAME": "CBERS 4", "OBJECT_ID": "2014-079A", "EPOCH": "2025-12-25T23:14:22.936992", "MEAN_MOTION": 14.35522474, "ECCENTRICITY": 0.00018839, "INCLINATION": 98.3286, "RA_OF_ASC_NODE": 57.5311, "ARG_OF_PERICENTER": 98.0714, "MEAN_ANOMALY": 262.0686, "EPHEMERIS_TYPE": 0, "CLASSIFICATION_TYPE": "U", "NORAD_CAT_ID": 40336, "ELEMENT_SET_NO": 999, "REV_AT_EPOCH": 57910, "BSTAR": 4.2879032e-05, "MEAN_MOTION_DOT": 8.1e-07, "MEAN_MOTION_DDOT": 0}, "tle": {"line1": "1 40336U 14079A   25359.96832103  .00000081  00000+0  42879-4 0  9995", "line2": "2 40336  98.3286  57.5311 0001883  98.0714 262.0686 14.35522474579104"}}, "geometry": {"type": "Point", "coordinates": [136.26566949125052, -81.49729184882878]}}, {"type": "Feature", "properties": {"norad_id": 40362, "name": "YAOGAN-26", "group": "resource", "lat": -47.93052782494441, "lon": 172.5287481285532, "alt_km": 455.03846678986156, "timestamp": "2025-12-26T05:31:12.157083+00:00", "meta": {"OBJECT_NAME": "YAOGAN-26", "OBJECT_ID": "2014-088A", "EPOCH": "2025-12-25T23:51:07.482240", "MEAN_MOTION": 15.39775711, "ECCENTRICITY": 0.00042356, "INCLINATION": 97.0647, "RA_OF_ASC_NODE": 0.1983, "ARG_OF_PERICENTER": 348.2429, "MEAN_ANOMALY": 11.8718, "EPHEMERIS_TYPE": 0, "CLASSIFICATION_TYPE": "U", "NORAD_CAT_ID": 40362, "ELEMENT_SET_NO": 999, "REV_AT_EPOCH": 61098, "BSTAR": 0.00076631569, "MEAN_MOTION_DOT": 0.0003036, "MEAN_MOTION_DDOT": 0}, "tle": {"line1": "1 40362U 14088A   25359.99383660  .00030360  00000+0  76632-3 0  9992", "line2": "2 40362  97.0647   0.1983 0004235 348.2429  11.8718 15.39775711610983"}}, "geometry": {"type": "Point", "coordinates": [172.5287481285532, -47.93052782494441]}}, {"type": "Feature", "properties": {"norad_id": 40376, "name": "SMAP", "group": "resource", "lat": 23.76276382548171, "lon": 1.1514341086554507, "alt_km": 681.4825249200603, "timestamp": "2025-12-26T05:31:12.157096+00:00", "meta": {"OBJECT_NAME": "SMAP", "OBJECT_ID": "2015-003A", "EPOCH": "2025-12-25T22:50:47.301504", "MEAN_MOTION": 14.63360908, "ECCENTRICITY": 0.00012334, "INCLINATION": 98.1291, "RA_OF_ASC_NODE": 4.4854, "ARG_OF_PERICENTER": 92.6642, "MEAN_ANOMALY": 267.4702, "EPHEMERIS_TYPE": 0, "CLASSIFICATION_TYPE": "U", "NORAD_CAT_ID": 40376, "ELEMENT_SET_NO": 999, "REV_AT_EPOCH": 58228, "BSTAR": 0.00011419226, "MEAN_MOTION_DOT": 5.43e-06, "MEAN_MOTION_DDOT": 0}, "tle": {"line1": "1 40376U 15003A   25359.95193636  .00000543  00000+0  11419-3 0  9995", "line2": "2 40376  98.1291   4.4854 0001233  92.6642 267.4702 14.63360908582288"}}, "geometry": {"type": "Point", "coordinates": [1.1514341086554507, 23.76276382548171]}}, {"type": "Feature", "properties": {"norad_id": 40536, "name": "KOMPSAT-3A", "group": "resource", "lat": 34.77364661453014, "lon": -30.049800180425965, "alt_km": 429.0159098785507, "timestamp": "2025-12-26T05:31:12.157107+00:00", "meta": {"OBJECT_NAME": "KOMPSAT-3A", "OBJECT_ID": "2015-014A", "EPOCH": "2025-12-25T23:08:54.769056", "MEAN_MOTION": 15.44431306, "ECCENTRICITY": 0.00056274, "INCLINATION": 97.6808, "RA_OF_ASC_NODE": 335.0467, "ARG_OF_PERICENTER": 98.1869, "MEAN_ANOMALY": 262.0017, "EPHEMERIS_TYPE": 0, "CLASSIFICATION_TYPE": "U", "NORAD_CAT_ID": 40536, "ELEMENT_SET_NO": 999, "REV_AT_EPOCH": 59499, "BSTAR": 0.00043432327, "MEAN_MOTION_DOT": 0.00020028, "MEAN_MOTION_DDOT": 0}, "tle": {"line1": "1 40536U 15014A   25359.96452279  .00020028  00000+0  43432-3 0  9997", "line2": "2 40536  97.6808 335.0467 0005627  98.1869 262.0017 15.44431306594992"}}, "geometry": {"type": "Point", "coordinates": [-30.049800180425965, 34.77364661453014]}}, {"type": "Feature", "properties": {"norad_id": 40697, "name": "SENTINEL-2A", "group": "resource", "lat": 63.8733015728303, "lon": -89.5149782327096, "alt_km": 782.0998300812753, "timestamp": "2025-12-26T05:31:12.157117+00:00", "meta": {"OBJECT_NAME": "SENTINEL-2A", "OBJECT_ID": "2015-028A", "EPOCH": "2025-12-25T22:16:20.967744", "MEAN_MOTION": 14.30809908, "ECCENTRICITY": 0.0001051, "INCLINATION": 98.5726, "RA_OF_ASC_NODE": 72.2758, "ARG_OF_PERICENTER": 88.2551, "MEAN_ANOMALY": 271.8752, "EPHEMERIS_TYPE": 0, "CLASSIFICATION_TYPE": "U", "NORAD_CAT_ID": 40697, "ELEMENT_SET_NO": 999, "REV_AT_EPOCH": 54895, "BSTAR": -5.232818e-06, "MEAN_MOTION_DOT": -5.7e-07, "MEAN_MOTION_DDOT": 0}, "tle": {"line1": "1 40697U 15028A   25359.92802046 -.00000057  00000+0 -52328-5 0  9995", "line2": "2 40697  98.5726  72.2758 0001051  88.2551 271.8752 14.30809908548957"}}, "geometry": {"type": "Point", "coordinates": [-89.5149782327096, 63.8733015728303]}}]}